$$SOE
2459580.500000000, A.D. 2022-Jan-01 00:00:00.0000, 1.109566290933047E+08, 3.666561259731818E+08, 1.818529101121515E+06,
2459587.500000000, A.D. 2022-Jan-08 00:00:00.0000, 1.003716279477934E+08, 3.706480905033519E+08, 4.660509219449013E+06,
2459594.500000000, A.D. 2022-Jan-15 00:00:00.0000, 8.970055280749317E+07, 3.743223511974017E+08, 7.498498021156013E+06,
2459601.500000000, A.D. 2022-Jan-22 00:00:00.0000, 7.895313098707789E+07, 3.776781689927081E+08, 1.033011087846962E+07,
2459608.500000000, A.D. 2022-Jan-29 00:00:00.0000, 6.813902320581479E+07, 3.807151509430681E+08, 1.315300596135849E+07,
2459615.500000000, A.D. 2022-Feb-05 00:00:00.0000, 5.726780876963761E+07, 3.834332406502326E+08, 1.596488671128771E+07,
2459622.500000000, A.D. 2022-Feb-12 00:00:00.0000, 4.634897365759576E+07, 3.858327071907911E+08, 1.876350382125688E+07,
2459629.500000000, A.D. 2022-Feb-19 00:00:00.0000, 3.539190019736744E+07, 3.879141349686068E+08, 2.154665704016092E+07,
2459636.500000000, A.D. 2022-Feb-26 00:00:00.0000, 2.440585702050416E+07, 3.896784138243564E+08, 2.431219686650404E+07,
2459643.500000000, A.D. 2022-Mar-05 00:00:00.0000, 1.339998945282205E+07, 3.911267288396695E+08, 2.705802607113668E+07,
2459650.500000000, A.D. 2022-Mar-12 00:00:00.0000, 2.383310554616157E+06, 3.922605498239124E+08, 2.978210102865443E+07,
2459657.500000000, A.D. 2022-Mar-19 00:00:00.0000, -8.635307128384216E+06, 3.930816205633612E+08, 3.248243285919154E+07,
2459664.500000000, A.D. 2022-Mar-26 00:00:00.0000, -1.964713909398281E+07, 3.935919478759177E+08, 3.515708838458514E+07,
2459671.500000000, A.D. 2022-Apr-02 00:00:00.0000, -3.064361564042268E+07, 3.937937904617664E+08, 3.780419089511970E+07,
2459678.500000000, A.D. 2022-Apr-09 00:00:00.0000, -4.161632759764011E+07, 3.936896475981414E+08, 4.042192070971954E+07,
2459685.500000000, A.D. 2022-Apr-16 00:00:00.0000, -5.255703069677659E+07, 3.932822483734686E+08, 4.300851555815929E+07,
2459692.500000000, A.D. 2022-Apr-23 00:00:00.0000, -6.345764986879427E+07, 3.925745425850948E+08, 4.556227099856967E+07,
2459699.500000000, A.D. 2022-Apr-30 00:00:00.0000, -7.431028536304702E+07, 3.915696910889121E+08, 4.808154086620083E+07,
2459706.500000000, A.D. 2022-May-07 00:00:00.0000, -8.510721764872760E+07, 3.902710536531828E+08, 5.056473731898037E+07,
2459713.500000000, A.D. 2022-May-14 00:00:00.0000, -9.584090973947352E+07, 3.886821773855666E+08, 5.301033060958871E+07,
2459720.500000000, A.D. 2022-May-21 00:00:00.0000, -1.065040089976969E+08, 3.868067865214058E+08, 5.541684884103261E+07,
2459727.500000000, A.D. 2022-May-28 00:00:00.0000, -1.170893489230721E+08, 3.846487726363595E+08, 5.778287767932726E+07,
2459734.500000000, A.D. 2022-Jun-04 00:00:00.0000, -1.275899506755247E+08, 3.822121849895989E+08, 6.010705998030880E+07,
2459741.500000000, A.D. 2022-Jun-11 00:00:00.0000, -1.379990242158010E+08, 3.795012210171363E+08, 6.238809532544722E+07,
2459748.500000000, A.D. 2022-Jun-18 00:00:00.0000, -1.483099690524474E+08, 3.765202170038164E+08, 6.462473947198138E+07,
2459755.500000000, A.D. 2022-Jun-25 00:00:00.0000, -1.585163745929430E+08, 3.732736389137450E+08, 6.681580371952727E+07,
2459762.500000000, A.D. 2022-Jul-02 00:00:00.0000, -1.686120199917311E+08, 3.697660733240449E+08, 6.896015418278854E+07,
2459769.500000000, A.D. 2022-Jul-09 00:00:00.0000, -1.785908731313808E+08, 3.660022186473284E+08, 7.105671095608287E+07,
2459776.500000000, A.D. 2022-Jul-16 00:00:00.0000, -1.884470888187797E+08, 3.619868777327329E+08, 7.310444727023727E+07,
2459783.500000000, A.D. 2022-Jul-23 00:00:00.0000, -1.981750084207336E+08, 3.577249519304810E+08, 7.510238885699889E+07,
2459790.500000000, A.D. 2022-Jul-30 00:00:00.0000, -2.077691608767628E+08, 3.532214332698780E+08, 7.704961324533612E+07,
2459797.500000000, A.D. 2022-Aug-06 00:00:00.0000, -2.172242615127951E+08, 3.484813953965289E+08, 7.894524871767394E+07,
2459804.500000000, A.D. 2022-Aug-13 00:00:00.0000, -2.265352095049197E+08, 3.435099860244103E+08, 8.078847323307496E+07,
2459811.500000000, A.D. 2022-Aug-20 00:00:00.0000, -2.356970855842926E+08, 3.383124204023050E+08, 8.257851342641254E+07,
2459818.500000000, A.D. 2022-Aug-27 00:00:00.0000, -2.447051499332060E+08, 3.328939750666772E+08, 8.431464362273291E+07,
2459825.500000000, A.D. 2022-Sep-03 00:00:00.0000, -2.535548400415796E+08, 3.272599817662247E+08, 8.599618483887525E+07,
2459832.500000000, A.D. 2022-Sep-10 00:00:00.0000, -2.622417684504615E+08, 3.214158215758473E+08, 8.762250376913358E+07,
2459839.500000000, A.D. 2022-Sep-17 00:00:00.0000, -2.707617203702356E+08, 3.153669191906713E+08, 8.919301175488752E+07,
2459846.500000000, A.D. 2022-Sep-24 00:00:00.0000, -2.791106511312292E+08, 3.091187373416515E+08, 9.070716373163840E+07,
2459853.500000000, A.D. 2022-Oct-01 00:00:00.0000, -2.872846832450140E+08, 3.026767713042063E+08, 9.216445713337396E+07,
2459860.500000000, A.D. 2022-Oct-08 00:00:00.0000, -2.952801026860501E+08, 2.960465440168862E+08, 9.356443076350239E+07,
2459867.500000000, A.D. 2022-Oct-15 00:00:00.0000, -3.030933553409832E+08, 2.892336030045996E+08, 9.490666381950364E+07,
2459874.500000000, A.D. 2022-Oct-22 00:00:00.0000, -3.107210458209041E+08, 2.822435174186049E+08, 9.619077513713679E+07,
2459881.500000000, A.D. 2022-Oct-29 00:00:00.0000, -3.181599361476971E+08, 2.750818725938278E+08, 9.741642221489532E+07,
2459888.500000000, A.D. 2022-Nov-05 00:00:00.0000, -3.254069422232856E+08, 2.677542648536482E+08, 9.858330005051391E+07,
2459895.500000000, A.D. 2022-Nov-12 00:00:00.0000, -3.324591300586826E+08, 2.602662978199549E+08, 9.969114007489300E+07,
2459902.500000000, A.D. 2022-Nov-19 00:00:00.0000, -3.393137124928622E+08, 2.526235792676005E+08, 1.007397091734000E+08,
2459909.500000000, A.D. 2022-Nov-26 00:00:00.0000, -3.459680461473210E+08, 2.448317181180620E+08, 1.017288087392341E+08,
2459916.500000000, A.D. 2022-Dec-03 00:00:00.0000, -3.524196284578598E+08, 2.368963215520488E+08, 1.026582737436308E+08,
2459923.500000000, A.D. 2022-Dec-10 00:00:00.0000, -3.586660947453727E+08, 2.288229922511328E+08, 1.035279718212258E+08,
2459930.500000000, A.D. 2022-Dec-17 00:00:00.0000, -3.647052153077418E+08, 2.206173257350513E+08, 1.043378023672160E+08,
2459937.500000000, A.D. 2022-Dec-24 00:00:00.0000, -3.705348924296198E+08, 2.122849077206742E+08, 1.050876956317624E+08,
2459944.500000000, A.D. 2022-Dec-31 00:00:00.0000, -3.761531569579314E+08, 2.038313116020159E+08, 1.057776117883347E+08,
2459951.500000000, A.D. 2023-Jan-07 00:00:00.0000, -3.815581643253533E+08, 1.952620970054035E+08, 1.064075400439675E+08,
2459958.500000000, A.D. 2023-Jan-14 00:00:00.0000, -3.867481919943700E+08, 1.865828099085676E+08, 1.069774980132756E+08,
2459965.500000000, A.D. 2023-Jan-21 00:00:00.0000, -3.917216389724494E+08, 1.777989811447583E+08, 1.074875311573862E+08,
2459972.500000000, A.D. 2023-Jan-28 00:00:00.0000, -3.964770237325392E+08, 1.689161230904816E+08, 1.079377119356860E+08,
2459979.500000000, A.D. 2023-Feb-04 00:00:00.0000, -4.010129807483087E+08, 1.599397275559168E+08, 1.083281389362635E+08,
2459986.500000000, A.D. 2023-Feb-11 00:00:00.0000, -4.053282574433323E+08, 1.508752646763682E+08, 1.086589361342307E+08,
2459993.500000000, A.D. 2023-Feb-18 00:00:00.0000, -4.094217116211289E+08, 1.417281819759452E+08, 1.089302522171512E+08,
2460000.500000000, A.D. 2023-Feb-25 00:00:00.0000, -4.132923091147970E+08, 1.325039034361585E+08, 1.091422599402662E+08,
2460007.500000000, A.D. 2023-Mar-04 00:00:00.0000, -4.169391215547422E+08, 1.232078285820649E+08, 1.092951555032737E+08,
2460014.500000000, A.D. 2023-Mar-11 00:00:00.0000, -4.203613242265025E+08, 1.138453315799958E+08, 1.093891579456189E+08,
2460021.500000000, A.D. 2023-Mar-18 00:00:00.0000, -4.235581939723487E+08, 1.044217602908907E+08, 1.094245085516097E+08,
2460028.500000000, A.D. 2023-Mar-25 00:00:00.0000, -4.265291069342347E+08, 9.494243522565727E+07, 1.094014702427480E+08,
2460035.500000000, A.D. 2023-Apr-01 00:00:00.0000, -4.292735357144964E+08, 8.541264878982231E+07, 1.093203269505946E+08,
2460042.500000000, A.D. 2023-Apr-08 00:00:00.0000, -4.317910465707490E+08, 7.583766603644650E+07, 1.091813831269843E+08,
2460049.500000000, A.D. 2023-Apr-15 00:00:00.0000, -4.340812989842334E+08, 6.622272581550312E+07, 1.089849635162753E+08,
2460056.500000000, A.D. 2023-Apr-22 00:00:00.0000, -4.361440457952801E+08, 5.657303926402579E+07, 1.087314127753941E+08,
2460063.500000000, A.D. 2023-Apr-29 00:00:00.0000, -4.379791311705369E+08, 4.689378788736650E+07, 1.084210948749176E+08,
2460070.500000000, A.D. 2023-May-06 00:00:00.0000, -4.395864881600223E+08, 3.719012300856164E+07, 1.080543925870738E+08,
2460077.500000000, A.D. 2023-May-13 00:00:00.0000, -4.409661368202363E+08, 2.746716568767522E+07, 1.076317070763663E+08,
2460084.500000000, A.D. 2023-May-20 00:00:00.0000, -4.421181826685284E+08, 1.773000661644165E+07, 1.071534575302969E+08,
2460091.500000000, A.D. 2023-May-27 00:00:00.0000, -4.430428152732627E+08, 7.983705954778049E+06, 1.066200808085958E+08,
2460098.500000000, A.D. 2023-Jun-03 00:00:00.0000, -4.437403069203551E+08, -1.766706870067984E+06, 1.060320311064236E+08,
2460105.500000000, A.D. 2023-Jun-10 00:00:00.0000, -4.442110113320158E+08, -1.151623342109838E+07, 1.053897796275596E+08,
2460112.500000000, A.D. 2023-Jun-17 00:00:00.0000, -4.444553623495872E+08, -2.125990663073430E+07, 1.046938142544829E+08,
2460119.500000000, A.D. 2023-Jun-24 00:00:00.0000, -4.444738722615696E+08, -3.099279124939753E+07, 1.039446391906679E+08,
2460126.500000000, A.D. 2023-Jul-01 00:00:00.0000, -4.442671295238321E+08, -4.070998353799992E+07, 1.031427746193067E+08,
2460133.500000000, A.D. 2023-Jul-08 00:00:00.0000, -4.438357975451677E+08, -5.040660938509541E+07, 1.022887565985112E+08,
2460140.500000000, A.D. 2023-Jul-15 00:00:00.0000, -4.431806158147898E+08, -6.007782368191804E+07, 1.013831370783783E+08,
2460147.500000000, A.D. 2023-Jul-22 00:00:00.0000, -4.423023998508136E+08, -6.971881199225570E+07, 1.004264836322390E+08,
$$EOE